NORAD_CAT_ID,OBJECT_NAME,OBJECT_TYPE,EPOCH,MEAN_MOTION,ECCENTRICITY,INCLINATION,RA_OF_ASC_NODE,ARG_OF_PERICENTER,MEAN_ANOMALY,BSTAR,MEAN_MOTION_DOT,MEAN_MOTION_DDOT,TLE_LINE0,TLE_LINE1,TLE_LINE2,SEMIMAJOR_AXIS,PERIOD,APOGEE,PERIGEE,DECAYED
54080.0,STARLINK-5160,PAYLOAD,2023-09-07 01:24:49,15.08851811,0.0001396,53.2174,125.2219,97.8647,262.2504,9.8752e-05,1.285e-05,0.0,0 STARLINK-5160,1 54080U 22136AF  23250.05891151  .00001285  00000-0  98752-4 0  9994,2 54080  53.2174 125.2219 0001396  97.8647 262.2504 15.08851811 49319,6917.844,95.437,540.675,538.744,0.0
54080.0,STARLINK-5160,PAYLOAD,2023-09-08 01:15:37,15.08841034,0.0001845,53.2179,120.7617,80.5847,279.5354,4.6699e-05,4.55e-06,0.0,0 STARLINK-5160,1 54080U 22136AF  23251.05252009  .00000455  00000-0  46699-4 0  9999,2 54080  53.2179 120.7617 0001845  80.5847 279.5354 15.08841034 49462,6917.877,95.437,541.019,538.466,0.0
54080.0,STARLINK-5160,PAYLOAD,2023-09-08 21:55:38,15.08840224,0.0001287,53.2176,116.8954,85.3339,274.78,9.8443e-05,1.279e-05,0.0,0 STARLINK-5160,1 54080U 22136AF  23251.91363591  .00001279  00000-0  98443-4 0  9992,2 54080  53.2176 116.8954 0001287  85.3339 274.7800 15.08840224 49113,6917.88,95.438,540.635,538.854,0.0
54080.0,STARLINK-5160,PAYLOAD,2023-09-09 01:06:24,15.0884109,0.0001289,53.2176,116.3005,84.9875,275.1264,0.00010211,1.338e-05,0.0,0 STARLINK-5160,1 54080U 22136AF  23252.04611547  .00001338  00000-0  10211-3 0  9996,2 54080  53.2176 116.3005 0001289  84.9875 275.1264 15.08841090 49130,6917.877,95.437,540.634,538.85,0.0
54080.0,STARLINK-5160,PAYLOAD,2023-09-09 18:35:39,15.08835624,0.0001281,53.2174,113.0287,82.9631,277.1506,6.7877e-05,7.92e-06,0.0,0 STARLINK-5160,1 54080U 22136AF  23252.77476131  .00000792  00000-0  67877-4 0  9998,2 54080  53.2174 113.0287 0001281  82.9631 277.1506 15.08835624 49726,6917.894,95.438,540.645,538.873,0.0
54080.0,STARLINK-5160,PAYLOAD,2023-09-10 00:57:11,15.08843217,0.0001275,53.2174,111.8395,87.36,272.7538,0.00012668,1.729e-05,0.0,0 STARLINK-5160,1 54080U 22136AF  23253.03971581  .00001729  00000-0  12668-3 0  9995,2 54080  53.2174 111.8395 0001275  87.3600 272.7538 15.08843217 49767,6917.871,95.437,540.618,538.854,0.0
54080.0,STARLINK-5160,PAYLOAD,2023-09-10 18:26:26,15.08833804,0.0001271,53.2174,108.5697,88.2613,271.8525,-1.2113e-05,-4.81e-06,0.0,0 STARLINK-5160,1 54080U 22136AF  23253.76836801 -.00000481  00000-0 -12113-4 0  9992,2 54080  53.2174 108.5697 0001271  88.2613 271.8525 15.08833804 49874,6917.899,95.438,540.644,538.885,0.0
54080.0,STARLINK-5160,PAYLOAD,2023-09-11 13:31:04,15.08836199,0.0001199,53.2168,105.0007,88.2802,271.8327,8.5621e-05,1.075e-05,0.0,0 STARLINK-5160,1 54080U 22136AF  23254.56324649  .00001075  00000-0  85621-4 0  9995,2 54080  53.2168 105.0007 0001199  88.2802 271.8327 15.08836199 49514,6917.892,95.438,540.586,538.928,0.0
54080.0,STARLINK-5160,PAYLOAD,2023-09-12 00:38:45,15.08850955,0.0001197,53.217,102.9192,85.4523,274.6606,0.00011505,1.544e-05,0.0,0 STARLINK-5160,1 54080U 22136AF  23255.02691642  .00001544  00000-0  11505-3 0  9997,2 54080  53.2170 102.9192 0001197  85.4523 274.6606 15.08850955 50064,6917.847,95.437,540.54,538.884,0.0
54080.0,STARLINK-5160,PAYLOAD,2023-09-12 18:08:01,15.08838621,0.0001354,53.2175,99.6489,84.1026,276.0121,0.00010248,1.343e-05,0.0,0 STARLINK-5160,1 54080U 22136AF  23255.75556836  .00001343  00000-0  10248-3 0  9992,2 54080  53.2175  99.6489 0001354  84.1026 276.0121 15.08838621 50175,6917.885,95.438,540.686,538.813,0.0
54080.0,STARLINK-5160,PAYLOAD,2023-09-12 21:18:47,15.08842506,0.0001394,53.2167,99.0546,81.91,278.205,0.00015263,2.142e-05,0.0,0 STARLINK-5160,1 54080U 22136AF  23255.88804507  .00002142  00000-0  15263-3 0  9997,2 54080  53.2167  99.0546 0001394  81.9100 278.2050 15.08842506 49716,6917.873,95.437,540.702,538.773,0.0
54080.0,STARLINK-5160,PAYLOAD,2023-09-13 13:12:37,15.08852621,0.0001308,53.2166,96.0815,83.6313,276.4828,0.00028871,4.311e-05,0.0,0 STARLINK-5160,1 54080U 22136AF  23256.55043917  .00004311  00000-0  28871-3 0  9991,2 54080  53.2166  96.0815 0001308  83.6313 276.4828 15.08852621 49814,6917.842,95.437,540.612,538.802,0.0
54080.0,STARLINK-5160,PAYLOAD,2023-09-13 17:58:47,15.0885561,0.0001407,53.2164,95.1896,82.4754,277.6398,0.00035196,5.32e-05,0.0,0 STARLINK-5160,1 54080U 22136AF  23256.74915778  .00005320  00000-0  35196-3 0  9994,2 54080  53.2164  95.1896 0001407  82.4754 277.6398 15.08855610 50321,6917.833,95.437,540.671,538.724,0.0
54080.0,STARLINK-5160,PAYLOAD,2023-09-13 19:34:10,15.08858161,0.0001397,53.2163,94.8919,83.6072,276.5079,0.00039589,6.021e-05,0.0,0 STARLINK-5160,1 54080U 22136AF  23256.81539670  .00006021  00000-0  39589-3 0  9994,2 54080  53.2163  94.8919 0001397  83.6072 276.5079 15.08858161 49850,6917.825,95.436,540.656,538.723,0.0
54080.0,STARLINK-5160,PAYLOAD,2023-09-14 13:03:25,15.08836059,0.0001375,53.2159,91.6208,75.3937,284.7207,-8.6223e-05,-1.66e-05,0.0,0 STARLINK-5160,1 54080U 22136AF  23257.54404315 -.00001660  00000-0 -86223-4 0  9996,2 54080  53.2159  91.6208 0001375  75.3937 284.7207 15.08836059 49963,6917.892,95.438,540.709,538.806,0.0
54080.0,STARLINK-5160,PAYLOAD,2023-09-14 19:24:58,15.0883126,0.000124,53.2157,90.4306,77.3868,282.7263,-8.9932e-05,-1.718e-05,0.0,0 STARLINK-5160,1 54080U 22136AF  23257.80900574 -.00001718  00000-0 -89932-4 0  9997,2 54080  53.2157  90.4306 0001240  77.3868 282.7263 15.08831260 50009,6917.907,95.438,540.63,538.914,0.0
54080.0,STARLINK-5160,PAYLOAD,2023-09-15 12:54:12,15.08835914,0.0001208,53.2168,87.1574,91.3002,268.8129,0.00037383,5.666e-05,0.0,0 STARLINK-5160,1 54080U 22136AF  23258.53764974  .00005666  00000-0  37383-3 0  9996,2 54080  53.2168  87.1574 0001208  91.3002 268.8129 15.08835914 50119,6917.893,95.438,540.594,538.922,0.0
54080.0,STARLINK-5160,PAYLOAD,2023-09-15 17:40:22,15.08844066,0.0001394,53.2164,86.2675,68.5747,291.5394,0.00061721,9.55e-05,0.0,0 STARLINK-5160,1 54080U 22136AF  23258.73636982  .00009550  00000-0  61721-3 0  9994,2 54080  53.2164  86.2675 0001394  68.5747 291.5394 15.08844066 50626,6917.868,95.437,540.697,538.769,0.0
54080.0,STARLINK-5160,PAYLOAD,2023-09-16 11:09:36,15.08859795,0.0001468,53.2169,82.9973,70.0012,290.1138,0.00063409,9.823e-05,0.0,0 STARLINK-5160,1 54080U 22136AF  23259.46500295  .00009823  00000-0  63409-3 0  9990,2 54080  53.2169  82.9973 0001468  70.0012 290.1138 15.08859795 50255,6917.82,95.436,540.7,538.669,0.0
54080.0,STARLINK-5160,PAYLOAD,2023-09-16 17:31:09,15.08845548,0.000148,53.2173,81.8073,71.3218,288.7935,0.00022175,3.243e-05,0.0,0 STARLINK-5160,1 54080U 22136AF  23259.72996803  .00003243  00000-0  22175-3 0  9998,2 54080  53.2173  81.8073 0001480  71.3218 288.7935 15.08845548 50771,6917.863,95.437,540.752,538.705,0.0
54080.0,STARLINK-5160,PAYLOAD,2023-09-17 12:35:46,15.08844735,0.0001466,53.2172,78.2383,74.1689,285.9465,8.0748e-05,9.98e-06,0.0,0 STARLINK-5160,1 54080U 22136AF  23260.52484665  .00000998  00000-0  80748-4 0  9991,2 54080  53.2172  78.2383 0001466  74.1689 285.9465 15.08844735 50416,6917.866,95.437,540.745,538.717,0.0
54080.0,STARLINK-5160,PAYLOAD,2023-09-17 18:57:18,15.08849866,0.0001402,53.2177,77.05,76.7709,283.344,0.00012305,1.671e-05,0.0,0 STARLINK-5160,1 54080U 22136AF  23260.78980295  .00001671  00000-0  12305-3 0  9991,2 54080  53.2177  77.0500 0001402  76.7709 283.3440 15.08849866 50932,6917.85,95.437,540.685,538.745,0.0
54080.0,STARLINK-5160,PAYLOAD,2023-09-18 10:51:10,15.08837209,0.0001355,53.2178,74.077,84.3039,275.8107,-3.2276e-06,-3.39e-06,0.0,0 STARLINK-5160,1 54080U 22136AF  23261.45220862 -.00000339  00000-0 -32276-5 0  9996,2 54080  53.2178  74.0770 0001355  84.3039 275.8107 15.08837209 51033,6917.889,95.438,540.691,538.817,0.0
54080.0,STARLINK-5160,PAYLOAD,2023-09-18 18:48:06,15.08837862,0.0001382,53.219,72.5909,87.6201,272.495,4.4957e-05,4.28e-06,0.0,0 STARLINK-5160,1 54080U 22136AF  23261.78341212  .00000428  00000-0  44957-4 0  9990,2 54080  53.2190  72.5909 0001382  87.6201 272.4950 15.08837862 50607,6917.887,95.438,540.708,538.796,0.0
54080.0,STARLINK-5160,PAYLOAD,2023-09-19 18:38:52,15.08851755,0.000132,53.2182,68.1273,85.6496,274.4647,9.3609e-05,1.203e-05,0.0,0 STARLINK-5160,1 54080U 22136AF  23262.77700088  .00001203  00000-0  93609-4 0  9990,2 54080  53.2182  68.1273 0001320  85.6496 274.4647 15.08851755 51231,6917.844,95.437,540.623,538.796,0.0
54080.0,STARLINK-5160,PAYLOAD,2023-09-20 10:32:45,15.08834762,0.0001537,53.2183,65.1546,90.9057,269.2112,7.0354e-05,8.32e-06,0.0,0 STARLINK-5160,1 54080U 22136AF  23263.43941185  .00000832  00000-0  70354-4 0  9998,2 54080  53.2183  65.1546 0001537  90.9057 269.2112 15.08834762 51333,6917.896,95.438,540.825,538.698,0.0
54080.0,STARLINK-5160,PAYLOAD,2023-09-20 18:29:40,15.08835114,0.0001268,53.2179,63.666,83.149,276.9647,-2.0307e-05,-6.11e-06,0.0,0 STARLINK-5160,1 54080U 22136AF  23263.77061329 -.00000611  00000-0 -20307-4 0  9998,2 54080  53.2179  63.6660 0001268  83.1490 276.9647 15.08835114 50906,6917.895,95.438,540.638,538.883,0.0
54080.0,STARLINK-5160,PAYLOAD,2023-09-21 10:23:32,15.08835615,0.0001294,53.218,60.6939,80.4143,279.6996,8.8377e-05,1.119e-05,0.0,0 STARLINK-5160,1 54080U 22136AF  23264.43301661  .00001119  00000-0  88377-4 0  9991,2 54080  53.2180  60.6939 0001294  80.4143 279.6996 15.08835615 51003,6917.894,95.438,540.654,538.864,0.0
54080.0,STARLINK-5160,PAYLOAD,2023-09-21 16:45:04,15.08844822,0.0001332,53.2183,59.505,80.6191,279.4952,0.00016784,2.385e-05,0.0,0 STARLINK-5160,1 54080U 22136AF  23264.69797248  .00002385  00000-0  16784-3 0  9997,2 54080  53.2183  59.5050 0001332  80.6191 279.4952 15.08844822 51522,6917.866,95.437,540.652,538.809,0.0
54080.0,STARLINK-5160,PAYLOAD,2023-09-22 13:25:05,15.08842945,0.0001309,53.217,55.6389,75.5867,284.527,0.00026409,3.918e-05,0.0,0 STARLINK-5160,1 54080U 22136AF  23265.55909460  .00003918  00000-0  26409-3 0  9992,2 54080  53.2170  55.6389 0001309  75.5867 284.5270 15.08842945 51172,6917.871,95.437,540.642,538.831,0.0
